ONEWEB-0504             
1 54122U 22138K   24139.89889948  .00000133  00000+0  29916-3 0  9998
2 54122  87.9131  96.0741 0001804  93.5561 266.5778 13.19728044 76681
ONEWEB-0505             
1 54123U 22138L   24139.89574499  .00000064  00000+0  12861-3 0  9995
2 54123  87.9128  96.0701 0002061 106.1555 253.9804 13.19727373 76666
ONEWEB-0506             
1 54124U 22138M   24139.87046882  .00000039  00000+0  65939-4 0  9991
2 54124  87.9129  96.0723 0002064  91.8368 268.3001 13.19727331 76659
ONEWEB-0508             
1 54126U 22138P   24139.88785041  .00000071  00000+0  14584-3 0  9996
2 54126  87.9135  96.0818 0002265  96.0856 264.0534 13.19726617 76688
ONEWEB-0509             
1 54127U 22138Q   24139.86257202 -.00000010  00000+0 -56712-4 0  9993
2 54127  87.9130  96.0758 0002054  89.6481 270.4887 13.19727705 76653
ONEWEB-0510             
1 54128U 22138R   24139.82115077  .00000074  00000+0  14889-3 0  9999
2 54128  87.9220  65.5195 0002397  72.8639 287.2757 13.20768369 79040
ONEWEB-0511             
1 54129U 22138S   24139.93523331  .00000084  00000+0  17871-3 0  9993
2 54129  87.9129  96.0640 0001640  87.0806 273.0514 13.19726908 76690
